GLOBALSTAR M035 [-]     
1 25851U 99037A   24014.66910576 -.00000079  00000+0 -58981-3 0  9991
2 25851  51.9941 133.5228 0013503 214.8050 253.9430 11.04528075 38851
GLOBALSTAR M032 [-]     
1 25852U 99037B   24014.37751620  .00000003  00000+0  22377-2 0  9997
2 25852  51.9991 355.2417 0009291  10.8920 349.2079 11.19049455 76596
GLOBALSTAR M051 [-]     
1 25853U 99037C   24015.01488867 -.00000079  00000+0 -16981-3 0  9990
2 25853  51.9755 213.3189 0002126  37.7083 322.3876 11.42195782 73082
GLOBALSTAR M030 [-]     
1 25854U 99037D   24015.47830700 -.00000098  00000+0 -48098-3 0  9993
2 25854  51.9894  51.2858 0004430 192.3641 167.7068 11.55086812 90201
GLOBALSTAR M048 [-]     
1 25872U 99041A   24014.71258959 -.00000058  00000+0  33349-3 0  9992
2 25872  51.9361 128.9909 0012789  10.0391 139.7416 11.33842465 66055
GLOBALSTAR M026 [-]     
1 25873U 99041B   24015.06376131 -.00000014  00000+0  18390-2 0  9995
2 25873  51.9993 256.0791 0002096  94.1364  55.6769 11.06835055 91201
GLOBALSTAR M043 [-]     
1 25874U 99041C   24014.80799983 -.00000080  00000+0 -35364-3 0  9996
2 25874  51.9361 215.7108 0013474 143.0775 304.6389 11.25674072 64382
GLOBALSTAR M028 [-]     
1 25875U 99041D   24014.95860746 -.00000022  00000+0  51134-3 0  9997
2 25875  51.9638 301.2691 0064109  24.1631 336.2215 12.50548321125247
